CCSDS_OMM_VERS = 2.0
CREATION_DATE  = 
ORIGINATOR     = 

OBJECT_NAME    = STARLINK-36709
OBJECT_ID      = 2026-038J
CENTER_NAME    = EARTH
REF_FRAME      = TEME
TIME_SYSTEM    = UTC
MEAN_ELEMENT_THEORY = SGP/SGP4

EPOCH          = 2026-03-23T04:00:01.999584
MEAN_MOTION    = 15.49704683
ECCENTRICITY   = .00018272
INCLINATION    = 97.2853
RA_OF_ASC_NODE = 93.0443
ARG_OF_PERICENTER = 118.2120
MEAN_ANOMALY   = 175.7665

EPHEMERIS_TYPE = 0
CLASSIFICATION_TYPE = U
NORAD_CAT_ID   = 67969
ELEMENT_SET_NO = 999
REV_AT_EPOCH   = 536
BSTAR          = -.3987456E-1
MEAN_MOTION_DOT = -.1977003E-1
MEAN_MOTION_DDOT = 0

CCSDS_OMM_VERS = 2.0
CREATION_DATE  = 
ORIGINATOR     = 

OBJECT_NAME    = STARLINK-36319
OBJECT_ID      = 2026-038K
CENTER_NAME    = EARTH
REF_FRAME      = TEME
TIME_SYSTEM    = UTC
MEAN_ELEMENT_THEORY = SGP/SGP4

EPOCH          = 2026-03-23T04:00:01.999584
MEAN_MOTION    = 15.49504462
ECCENTRICITY   = .00012941
INCLINATION    = 97.2849
RA_OF_ASC_NODE = 92.9957
ARG_OF_PERICENTER = 131.9572
MEAN_ANOMALY   = 57.0114

EPHEMERIS_TYPE = 0
CLASSIFICATION_TYPE = U
NORAD_CAT_ID   = 67970
ELEMENT_SET_NO = 999
REV_AT_EPOCH   = 533
BSTAR          = -.13361436E-1
MEAN_MOTION_DOT = -.67507E-2
MEAN_MOTION_DDOT = 0

CCSDS_OMM_VERS = 2.0
CREATION_DATE  = 
ORIGINATOR     = 

OBJECT_NAME    = STARLINK-36710
OBJECT_ID      = 2026-038L
CENTER_NAME    = EARTH
REF_FRAME      = TEME
TIME_SYSTEM    = UTC
MEAN_ELEMENT_THEORY = SGP/SGP4

EPOCH          = 2026-03-23T04:00:01.999584
MEAN_MOTION    = 15.48795026
ECCENTRICITY   = .00017064
INCLINATION    = 97.2855
RA_OF_ASC_NODE = 93.0563
ARG_OF_PERICENTER = 109.7845
MEAN_ANOMALY   = 211.6118

EPHEMERIS_TYPE = 0
CLASSIFICATION_TYPE = U
NORAD_CAT_ID   = 67971
ELEMENT_SET_NO = 999
REV_AT_EPOCH   = 536
BSTAR          = -.48948207E-1
MEAN_MOTION_DOT = -.2304457E-1
MEAN_MOTION_DDOT = 0

CCSDS_OMM_VERS = 2.0
CREATION_DATE  = 
ORIGINATOR     = 

OBJECT_NAME    = STARLINK-36894
OBJECT_ID      = 2026-038M
CENTER_NAME    = EARTH
REF_FRAME      = TEME
TIME_SYSTEM    = UTC
MEAN_ELEMENT_THEORY = SGP/SGP4

EPOCH          = 2026-03-23T04:00:01.999584
MEAN_MOTION    = 15.49023409
ECCENTRICITY   = .00017324
INCLINATION    = 97.2856
RA_OF_ASC_NODE = 93.0621
ARG_OF_PERICENTER = 93.3357
MEAN_ANOMALY   = 241.0180

EPHEMERIS_TYPE = 0
CLASSIFICATION_TYPE = U
NORAD_CAT_ID   = 67972
ELEMENT_SET_NO = 999
REV_AT_EPOCH   = 536
BSTAR          = -.48688289E-1
MEAN_MOTION_DOT = -.2310002E-1
MEAN_MOTION_DDOT = 0

CCSDS_OMM_VERS = 2.0
CREATION_DATE  = 
ORIGINATOR     = 

OBJECT_NAME    = STARLINK-36900
OBJECT_ID      = 2026-038N
CENTER_NAME    = EARTH
REF_FRAME      = TEME
TIME_SYSTEM    = UTC
MEAN_ELEMENT_THEORY = SGP/SGP4

EPOCH          = 2026-03-23T00:00:02.000160
MEAN_MOTION    = 15.49211857
ECCENTRICITY   = .0001307
INCLINATION    = 97.2859
RA_OF_ASC_NODE = 92.7616
ARG_OF_PERICENTER = 87.8712
MEAN_ANOMALY   = 89.9605

EPHEMERIS_TYPE = 0
CLASSIFICATION_TYPE = U
NORAD_CAT_ID   = 67973
ELEMENT_SET_NO = 999
REV_AT_EPOCH   = 534
BSTAR          = -.71905043E-3
MEAN_MOTION_DOT = -.39035E-3
MEAN_MOTION_DDOT = 0

CCSDS_OMM_VERS = 2.0
CREATION_DATE  = 
ORIGINATOR     = 

OBJECT_NAME    = STARLINK-36901
OBJECT_ID      = 2026-038P
CENTER_NAME    = EARTH
REF_FRAME      = TEME
TIME_SYSTEM    = UTC
MEAN_ELEMENT_THEORY = SGP/SGP4

EPOCH          = 2026-03-23T04:00:01.999584
MEAN_MOTION    = 15.49570034
ECCENTRICITY   = .0001659
INCLINATION    = 97.2854
RA_OF_ASC_NODE = 93.0654
ARG_OF_PERICENTER = 79.3054
MEAN_ANOMALY   = 262.7544

EPHEMERIS_TYPE = 0
CLASSIFICATION_TYPE = U
NORAD_CAT_ID   = 67974
ELEMENT_SET_NO = 999
REV_AT_EPOCH   = 536
BSTAR          = -.44531705E-1
MEAN_MOTION_DOT = -.2172078E-1
MEAN_MOTION_DDOT = 0

CCSDS_OMM_VERS = 2.0
CREATION_DATE  = 
ORIGINATOR     = 

OBJECT_NAME    = STARLINK-36883
OBJECT_ID      = 2026-038Q
CENTER_NAME    = EARTH
REF_FRAME      = TEME
TIME_SYSTEM    = UTC
MEAN_ELEMENT_THEORY = SGP/SGP4

EPOCH          = 2026-03-23T04:00:01.999584
MEAN_MOTION    = 15.49286010
ECCENTRICITY   = .00019523
INCLINATION    = 97.2853
RA_OF_ASC_NODE = 93.0495
ARG_OF_PERICENTER = 94.7359
MEAN_ANOMALY   = 214.2173

EPHEMERIS_TYPE = 0
CLASSIFICATION_TYPE = U
NORAD_CAT_ID   = 67975
ELEMENT_SET_NO = 999
REV_AT_EPOCH   = 536
BSTAR          = -.43233925E-2
MEAN_MOTION_DOT = -.229318E-2
MEAN_MOTION_DDOT = 0

CCSDS_OMM_VERS = 2.0
CREATION_DATE  = 
ORIGINATOR     = 

OBJECT_NAME    = STARLINK-36880
OBJECT_ID      = 2026-038R
CENTER_NAME    = EARTH
REF_FRAME      = TEME
TIME_SYSTEM    = UTC
MEAN_ELEMENT_THEORY = SGP/SGP4

EPOCH          = 2026-03-23T07:14:45.442176
MEAN_MOTION    = 15.49241325
ECCENTRICITY   = .00016555
INCLINATION    = 97.2861
RA_OF_ASC_NODE = 93.0386
ARG_OF_PERICENTER = 87.6544
MEAN_ANOMALY   = 272.4896

EPHEMERIS_TYPE = 0
CLASSIFICATION_TYPE = U
NORAD_CAT_ID   = 67976
ELEMENT_SET_NO = 999
REV_AT_EPOCH   = 531
BSTAR          = .1928596E-2
MEAN_MOTION_DOT = .106425E-2
MEAN_MOTION_DDOT = 0

CCSDS_OMM_VERS = 2.0
CREATION_DATE  = 
ORIGINATOR     = 

OBJECT_NAME    = STARLINK-36904
OBJECT_ID      = 2026-038S
CENTER_NAME    = EARTH
REF_FRAME      = TEME
TIME_SYSTEM    = UTC
MEAN_ELEMENT_THEORY = SGP/SGP4

EPOCH          = 2026-03-23T04:00:01.999584
MEAN_MOTION    = 15.49243335
ECCENTRICITY   = .00008622
INCLINATION    = 97.2854
RA_OF_ASC_NODE = 93.0450
ARG_OF_PERICENTER = 120.7984
MEAN_ANOMALY   = 176.9957

EPHEMERIS_TYPE = 0
CLASSIFICATION_TYPE = U
NORAD_CAT_ID   = 67977
ELEMENT_SET_NO = 999
REV_AT_EPOCH   = 536
BSTAR          = -.30643279E-3
MEAN_MOTION_DOT = -.16752E-3
MEAN_MOTION_DDOT = 0

CCSDS_OMM_VERS = 2.0
CREATION_DATE  = 
ORIGINATOR     = 

OBJECT_NAME    = STARLINK-36364
OBJECT_ID      = 2026-038T
CENTER_NAME    = EARTH
REF_FRAME      = TEME
TIME_SYSTEM    = UTC
MEAN_ELEMENT_THEORY = SGP/SGP4

EPOCH          = 2026-03-23T04:00:01.999584
MEAN_MOTION    = 15.50074815
ECCENTRICITY   = .00012654
INCLINATION    = 97.2852
RA_OF_ASC_NODE = 93.1043
ARG_OF_PERICENTER = 71.7856
MEAN_ANOMALY   = 1.3820

EPHEMERIS_TYPE = 0
CLASSIFICATION_TYPE = U
NORAD_CAT_ID   = 67978
ELEMENT_SET_NO = 999
REV_AT_EPOCH   = 536
BSTAR          = -.29094699E-1
MEAN_MOTION_DOT = -.1457842E-1
MEAN_MOTION_DDOT = 0

CCSDS_OMM_VERS = 2.0
CREATION_DATE  = 
ORIGINATOR     = 

OBJECT_NAME    = STARLINK-36359
OBJECT_ID      = 2026-038U
CENTER_NAME    = EARTH
REF_FRAME      = TEME
TIME_SYSTEM    = UTC
MEAN_ELEMENT_THEORY = SGP/SGP4

EPOCH          = 2026-03-23T04:00:01.999584
MEAN_MOTION    = 15.49197628
ECCENTRICITY   = .00021209
INCLINATION    = 97.2940
RA_OF_ASC_NODE = 93.0554
ARG_OF_PERICENTER = 84.3565
MEAN_ANOMALY   = 241.4187

EPHEMERIS_TYPE = 0
CLASSIFICATION_TYPE = U
NORAD_CAT_ID   = 67979
ELEMENT_SET_NO = 999
REV_AT_EPOCH   = 536
BSTAR          = -.68492305E-3
MEAN_MOTION_DOT = -.3718E-3
MEAN_MOTION_DDOT = 0

CCSDS_OMM_VERS = 2.0
CREATION_DATE  = 
ORIGINATOR     = 

OBJECT_NAME    = STARLINK-36882
OBJECT_ID      = 2026-038V
CENTER_NAME    = EARTH
REF_FRAME      = TEME
TIME_SYSTEM    = UTC
MEAN_ELEMENT_THEORY = SGP/SGP4

EPOCH          = 2026-03-23T04:00:01.999584
MEAN_MOTION    = 15.49152747
ECCENTRICITY   = .00011069
INCLINATION    = 97.2855
RA_OF_ASC_NODE = 93.0451
ARG_OF_PERICENTER = 88.5805
MEAN_ANOMALY   = 212.0289

EPHEMERIS_TYPE = 0
CLASSIFICATION_TYPE = U
NORAD_CAT_ID   = 67980
ELEMENT_SET_NO = 999
REV_AT_EPOCH   = 536
BSTAR          = .4885528E-5
MEAN_MOTION_DOT = .175E-5
MEAN_MOTION_DDOT = 0

CCSDS_OMM_VERS = 2.0
CREATION_DATE  = 
ORIGINATOR     = 

OBJECT_NAME    = STARLINK-36874
OBJECT_ID      = 2026-038W
CENTER_NAME    = EARTH
REF_FRAME      = TEME
TIME_SYSTEM    = UTC
MEAN_ELEMENT_THEORY = SGP/SGP4

EPOCH          = 2026-03-23T04:00:01.999584
MEAN_MOTION    = 15.50830956
ECCENTRICITY   = .00015037
INCLINATION    = 97.2854
RA_OF_ASC_NODE = 93.1105
ARG_OF_PERICENTER = 69.6220
MEAN_ANOMALY   = 18.5182

EPHEMERIS_TYPE = 0
CLASSIFICATION_TYPE = U
NORAD_CAT_ID   = 67981
ELEMENT_SET_NO = 999
REV_AT_EPOCH   = 536
BSTAR          = -.45702317E-1
MEAN_MOTION_DOT = -.2311763E-1
MEAN_MOTION_DDOT = 0

CCSDS_OMM_VERS = 2.0
CREATION_DATE  = 
ORIGINATOR     = 

OBJECT_NAME    = STARLINK-36879
OBJECT_ID      = 2026-038X
CENTER_NAME    = EARTH
REF_FRAME      = TEME
TIME_SYSTEM    = UTC
MEAN_ELEMENT_THEORY = SGP/SGP4

EPOCH          = 2026-03-23T00:00:02.000160
MEAN_MOTION    = 15.49237185
ECCENTRICITY   = .00012488
INCLINATION    = 97.2862
RA_OF_ASC_NODE = 92.7732
ARG_OF_PERICENTER = 104.6445
MEAN_ANOMALY   = 101.7963

EPHEMERIS_TYPE = 0
CLASSIFICATION_TYPE = U
NORAD_CAT_ID   = 67982
ELEMENT_SET_NO = 999
REV_AT_EPOCH   = 534
BSTAR          = -.16587577E-2
MEAN_MOTION_DOT = -.8944E-3
MEAN_MOTION_DDOT = 0

CCSDS_OMM_VERS = 2.0
CREATION_DATE  = 
ORIGINATOR     = 

OBJECT_NAME    = STARLINK-36867
OBJECT_ID      = 2026-038Y
CENTER_NAME    = EARTH
REF_FRAME      = TEME
TIME_SYSTEM    = UTC
MEAN_ELEMENT_THEORY = SGP/SGP4

EPOCH          = 2026-03-23T00:00:02.000160
MEAN_MOTION    = 15.49219051
ECCENTRICITY   = .00015416
INCLINATION    = 97.2863
RA_OF_ASC_NODE = 92.8050
ARG_OF_PERICENTER = 76.3990
MEAN_ANOMALY   = 203.9987

EPHEMERIS_TYPE = 0
CLASSIFICATION_TYPE = U
NORAD_CAT_ID   = 67983
ELEMENT_SET_NO = 999
REV_AT_EPOCH   = 534
BSTAR          = -.32617861E-3
MEAN_MOTION_DOT = -.17809E-3
MEAN_MOTION_DDOT = 0

